TIGER-8                 
1 59120U 24043Y   26202.15705538  .00006802  00000+0  14494-3 0  9996
2 59120  97.5582 352.1447 0008844  85.2024 275.0234 15.45235795133035
TIGER-7                 
1 59141U 24043AV  26201.98141898  .00008510  00000+0  15662-3 0  9998
2 59141  97.5519 354.5029 0006611  60.7114 299.4797 15.49429989133205
