{"fetched_at":"2026-07-21T17:53:57.598Z","source":"https://celestrak.org/NORAD/elements/gp.php?NAME=TIGER&FORMAT=JSON","constellation":"oq-technology","records":[{"OBJECT_NAME":"TIGER-8","OBJECT_ID":"2024-043Y","EPOCH":"2026-07-21T03:46:09.584832","CLASSIFICATION_TYPE":"U","MEAN_MOTION":15.45235795,"ECCENTRICITY":0.0008844,"INCLINATION":97.5582,"RA_OF_ASC_NODE":352.1447,"ARG_OF_PERICENTER":85.2024,"MEAN_ANOMALY":275.0234,"EPHEMERIS_TYPE":0,"NORAD_CAT_ID":59120,"ELEMENT_SET_NO":999,"REV_AT_EPOCH":13303,"BSTAR":0.00014493897,"MEAN_MOTION_DOT":0.00006802,"MEAN_MOTION_DDOT":0},{"OBJECT_NAME":"TIGER-7","OBJECT_ID":"2024-043AV","EPOCH":"2026-07-20T23:33:14.599872","CLASSIFICATION_TYPE":"U","MEAN_MOTION":15.49429989,"ECCENTRICITY":0.00066114,"INCLINATION":97.5519,"RA_OF_ASC_NODE":354.5029,"ARG_OF_PERICENTER":60.7114,"MEAN_ANOMALY":299.4797,"EPHEMERIS_TYPE":0,"NORAD_CAT_ID":59141,"ELEMENT_SET_NO":999,"REV_AT_EPOCH":13320,"BSTAR":0.00015661793,"MEAN_MOTION_DOT":0.0000851,"MEAN_MOTION_DDOT":0}]}
